[{"OBJECT_NAME":"STARLINK-6073","OBJECT_ID":"2023-078AS","EPOCH":"2026-03-09T22:17:41.084736","MEAN_MOTION":14.99848742,"ECCENTRICITY":0.00116938,"INCLINATION":70.0028,"RA_OF_ASC_NODE":323.68,"ARG_OF_PERICENTER":295.6335,"MEAN_ANOMALY":64.3616,"EPHEMERIS_TYPE":0,"CLASSIFICATION_TYPE":"U","NORAD_CAT_ID":56807,"ELEMENT_SET_NO":999,"REV_AT_EPOCH":15321,"BSTAR":0.083955931,"MEAN_MOTION_DOT":0.01119436,"MEAN_MOTION_DDOT":0},{"OBJECT_NAME":"VENUS","OBJECT_ID":"2017-044B","EPOCH":"2026-03-09T23:09:30.995712","MEAN_MOTION":15.13501273,"ECCENTRICITY":0.0003369,"INCLINATION":97.2854,"RA_OF_ASC_NODE":109.9366,"ARG_OF_PERICENTER":18.8951,"MEAN_ANOMALY":341.2406,"EPHEMERIS_TYPE":0,"CLASSIFICATION_TYPE":"U","NORAD_CAT_ID":42901,"ELEMENT_SET_NO":999,"REV_AT_EPOCH":46594,"BSTAR":0.00021725971,"MEAN_MOTION_DOT":3.827e-5,"MEAN_MOTION_DDOT":0}]
